[{"OBJECT_NAME":"STARLINK-32841","OBJECT_ID":"2025-022M","EPOCH":"2026-03-09T10:51:21.439008","MEAN_MOTION":15.30186569,"ECCENTRICITY":0.00013464,"INCLINATION":53.1577,"RA_OF_ASC_NODE":130.728,"ARG_OF_PERICENTER":81.5163,"MEAN_ANOMALY":278.5991,"EPHEMERIS_TYPE":0,"CLASSIFICATION_TYPE":"U","NORAD_CAT_ID":62865,"ELEMENT_SET_NO":999,"REV_AT_EPOCH":6185,"BSTAR":0.0011668282,"MEAN_MOTION_DOT":0.00034344,"MEAN_MOTION_DDOT":0},{"OBJECT_NAME":"PSLV R\/B","OBJECT_ID":"2020-081L","EPOCH":"2026-03-09T11:07:47.822880","MEAN_MOTION":15.35733047,"ECCENTRICITY":0.00238531,"INCLINATION":36.845,"RA_OF_ASC_NODE":143.8276,"ARG_OF_PERICENTER":144.7418,"MEAN_ANOMALY":215.4916,"EPHEMERIS_TYPE":0,"CLASSIFICATION_TYPE":"U","NORAD_CAT_ID":46915,"ELEMENT_SET_NO":999,"REV_AT_EPOCH":29573,"BSTAR":0.00039539958,"MEAN_MOTION_DOT":0.00014147,"MEAN_MOTION_DDOT":0}]
